{
    "links": {
        "self": "http://www.neowsapp.com/rest/v1/neo/3836111?api_key=iIulBulltgU6a56xZRHN4H3l9WmuAYTsLGpBGhQ2"
    },
    "id": "3836111",
    "neo_reference_id": "3836111",
    "name": "(2018 VX4)",
    "designation": "2018 VX4",
    "nasa_jpl_url": "http://ssd.jpl.nasa.gov/sbdb.cgi?sstr=3836111",
    "absolute_magnitude_h": 25.9,
    "estimated_diameter": {
        "kilometers": {
            "estimated_diameter_min": 0.0175612318,
            "estimated_diameter_max": 0.0392681082
        },
        "meters": {
            "estimated_diameter_min": 17.561231848,
            "estimated_diameter_max": 39.2681081809
        },
        "miles": {
            "estimated_diameter_min": 0.0109120402,
            "estimated_diameter_max": 0.0244000636
        },
        "feet": {
            "estimated_diameter_min": 57.6155918963,
            "estimated_diameter_max": 128.8323800441
        }
    },
    "is_potentially_hazardous_asteroid": false,
    "close_approach_data": [
        {
            "close_approach_date": "2018-11-03",
            "close_approach_date_full": "2018-Nov-03 06:56",
            "epoch_date_close_approach": 1541228160000,
            "relative_velocity": {
                "kilometers_per_second": "6.8002997036",
                "kilometers_per_hour": "24481.0789329949",
                "miles_per_hour": "15211.5904070045"
            },
            "miss_distance": {
                "astronomical": "0.0599298177",
                "lunar": "23.3126990853",
                "kilometers": "8965373.077408299",
                "miles": "5570824.5077365662"
            },
            "orbiting_body": "Earth"
        },
        {
            "close_approach_date": "2155-12-12",
            "close_approach_date_full": "2155-Dec-12 17:07",
            "epoch_date_close_approach": 5867917620000,
            "relative_velocity": {
                "kilometers_per_second": "17.3239304085",
                "kilometers_per_hour": "62366.1494706828",
                "miles_per_hour": "38751.8999308251"
            },
            "miss_distance": {
                "astronomical": "0.3679859553",
                "lunar": "143.1465366117",
                "kilometers": "55049915.102795211",
                "miles": "34206431.0715914718"
            },
            "orbiting_body": "Earth"
        }
    ],
    "orbital_data": {
        "orbit_id": "4",
        "orbit_determination_date": "2020-09-22 06:45:10",
        "first_observation_date": "2018-11-06",
        "last_observation_date": "2018-11-17",
        "data_arc_in_days": 11,
        "observations_used": 38,
        "orbit_uncertainty": "7",
        "minimum_orbit_intersection": ".0555923",
        "jupiter_tisserand_invariant": "3.367",
        "epoch_osculation": "2459000.5",
        "eccentricity": ".5498097825273718",
        "semi_major_axis": "2.306306821325744",
        "inclination": "2.249124567492138",
        "ascending_node_longitude": "88.52557748201487",
        "orbital_period": "1279.304867019444",
        "perihelion_distance": "1.038276769451242",
        "perihelion_argument": "304.0381849867653",
        "aphelion_distance": "3.574336873200245",
        "perihelion_time": "2458419.655078726234",
        "mean_anomaly": "163.4514000917793",
        "mean_motion": ".2814028221738396",
        "equinox": "J2000",
        "orbit_class": {
            "orbit_class_type": "AMO",
            "orbit_class_description": "Near-Earth asteroid orbits similar to that of 1221 Amor",
            "orbit_class_range": "1.017 AU < q (perihelion) < 1.3 AU"
        }
    },
    "is_sentry_object": false
}